NORAD_CAT_ID,OBJECT_NAME,OBJECT_TYPE,EPOCH,MEAN_MOTION,ECCENTRICITY,INCLINATION,RA_OF_ASC_NODE,ARG_OF_PERICENTER,MEAN_ANOMALY,BSTAR,MEAN_MOTION_DOT,MEAN_MOTION_DDOT,TLE_LINE0,TLE_LINE1,TLE_LINE2,SEMIMAJOR_AXIS,PERIOD,APOGEE,PERIGEE,DECAYED
54196.0,STARLINK-5237,PAYLOAD,2022-12-17 22:12:21,15.73998294,0.0004899,53.2139,252.0743,340.3694,19.7137,0.00064571,0.00094263,0.0,0 STARLINK-5237,1 54196U 22141AR  22351.92524724  .00094263  00000-0  64571-3 0  9993,2 54196  53.2139 252.0743 0004899 340.3694  19.7137 15.73998294  8274,6725.62,91.487,350.78,344.19,0.0
54196.0,STARLINK-5237,PAYLOAD,2022-12-18 14:00:01,15.73185438,0.0002386,53.214,248.8185,16.0226,111.1916,3.2254e-05,3.905e-05,0.0,0 STARLINK-5237,1 54196U 22141AR  22352.58334491  .00003905  00000-0  32254-4 0  9993,2 54196  53.2140 248.8185 0002386  16.0226 111.1916 15.73185438  8377,6727.937,91.534,351.407,348.196,0.0
54196.0,STARLINK-5237,PAYLOAD,2022-12-18 18:02:12,15.72919079,0.0004516999999999,53.2135,247.9896,88.1499,272.0038,0.0032069,0.00469941,0.0,0 STARLINK-5237,1 54196U 22141AR  22352.75152969  .00469941  00000-0  32069-2 0  9998,2 54196  53.2135 247.9896 0004517  88.1499 272.0038 15.72919079  8401,6728.696,91.55,353.601,347.522,0.0
54196.0,STARLINK-5237,PAYLOAD,2022-12-19 01:39:33,15.73230647,0.0002588,53.214,246.4171,22.7526,337.3608,0.00058699,0.00082692,0.0,0 STARLINK-5237,1 54196U 22141AR  22353.06913932  .00082692  00000-0  58699-3 0  9990,2 54196  53.2140 246.4171 0002588  22.7526 337.3608 15.73230647  8459,6727.808000000001,91.531,351.414,347.932,0.0
54196.0,STARLINK-5237,PAYLOAD,2022-12-19 23:00:09,15.73312699,0.0002985,53.2154,242.0159,27.6106,332.5072,0.0004632,0.00065219,0.0,0 STARLINK-5237,1 54196U 22141AR  22353.95843856  .00065219  00000-0  46320-3 0  9999,2 54196  53.2154 242.0159 0002985  27.6106 332.5072 15.73312699  8596,6727.574000000001,91.527,351.44699999999995,347.431,0.0
54196.0,STARLINK-5237,PAYLOAD,2022-12-20 17:18:01,15.73236191,0.000223,53.2139,238.2438,11.3346,348.7724,0.00029304,0.00040772,0.0,0 STARLINK-5237,1 54196U 22141AR  22354.72084838  .00040772  00000-0  29304-3 0  9992,2 54196  53.2139 238.2438 0002230  11.3346 348.7724 15.73236191  8714,6727.792,91.531,351.157,348.157,0.0
54196.0,STARLINK-5237,PAYLOAD,2022-12-21 00:55:25,15.7319159,0.0002647,53.2138,236.6706,4.0394,356.0647,0.00034183,0.00047613,0.0,0 STARLINK-5237,1 54196U 22141AR  22355.03849215  .00047613  00000-0  34183-3 0  9997,2 54196  53.2138 236.6706 0002647   4.0394 356.0647 15.73191590  8761,6727.919,91.534,351.565,348.00300000000016,0.0
54196.0,STARLINK-5237,PAYLOAD,2022-12-22 01:19:09,15.73168575,0.000293,53.2137,231.6421,18.5412,341.5714,0.00017299,0.00023696,0.0,0 STARLINK-5237,1 54196U 22141AR  22356.05497025  .00023696  00000-0  17299-3 0  9992,2 54196  53.2137 231.6421 0002930  18.5412 341.5714 15.73168575  8924,6727.985,91.535,351.821,347.87800000000016,0.0
54196.0,STARLINK-5237,PAYLOAD,2022-12-22 08:56:33,15.73204765,0.0002454,53.2137,230.0699,22.9024,337.2105,0.00031827,0.00044295,0.0,0 STARLINK-5237,1 54196U 22141AR  22356.37261349  .00044295  00000-0  31827-3 0  9996,2 54196  53.2137 230.0699 0002454  22.9024 337.2105 15.73204765  8976,6727.882,91.533,351.398,348.096,0.0
54196.0,STARLINK-5237,PAYLOAD,2022-12-22 21:08:24,15.73224102,0.0002148,53.2136,227.5552,16.4617,343.6472,0.0003594,0.00050176,0.0,0 STARLINK-5237,1 54196U 22141AR  22356.88083656  .00050176  00000-0  35940-3 0  9990,2 54196  53.2136 227.5552 0002148  16.4617 343.6472 15.73224102  8829,6727.826,91.532,351.13699999999994,348.246,0.0
54196.0,STARLINK-5237,PAYLOAD,2022-12-23 01:42:50,15.7322427,0.0002261,53.2133,226.6103,19.9547,340.1561,0.00018094,0.00024876,0.0,0 STARLINK-5237,1 54196U 22141AR  22357.07141882  .00024876  00000-0  18094-3 0  9997,2 54196  53.2133 226.6103 0002261  19.9547 340.1561 15.73224270  9080,6727.826,91.532,351.212,348.17,0.0
54196.0,STARLINK-5237,PAYLOAD,2022-12-23 15:26:10,15.73203084,0.0002128,53.2135,223.7842,36.2759,323.8406,0.00011071,0.00014947,0.0,0 STARLINK-5237,1 54196U 22141AR  22357.64317364  .00014947  00000-0  11071-3 0  9996,2 54196  53.2135 223.7842 0002128  36.2759 323.8406 15.73203084  9175,6727.886,91.533,351.18300000000005,348.32,0.0
54196.0,STARLINK-5237,PAYLOAD,2022-12-23 18:29:07,15.73229177,0.0002582,53.2127,223.1534,356.6354,3.4649,0.00015772,0.000216,0.0,0 STARLINK-5237,1 54196U 22141AR  22357.77022669  .00021600  00000-0  15772-3 0  9997,2 54196  53.2127 223.1534 0002582 356.6354   3.4649 15.73229177  8969,6727.812,91.531,351.414,347.94,0.0
54196.0,STARLINK-5237,PAYLOAD,2022-12-24 02:06:30,15.73258778,0.0001971,53.2128,221.5825,8.6692,351.4361,0.00022254,0.00030806,0.0,0 STARLINK-5237,1 54196U 22141AR  22358.08785413  .00030806  00000-0  22254-3 0  9996,2 54196  53.2128 221.5825 0001971   8.6692 351.4361 15.73258778  9243,6727.728,91.53,350.9190000000001,348.267,0.0
54196.0,STARLINK-5237,PAYLOAD,2022-12-24 08:12:25,15.73246767,0.0002097,53.2132,220.3241,17.0767,343.0324,0.00012482,0.00016968,0.0,0 STARLINK-5237,1 54196U 22141AR  22358.34196244  .00016968  00000-0  12482-3 0  9998,2 54196  53.2132 220.3241 0002097  17.0767 343.0324 15.73246767  9289,6727.762,91.53,351.038,348.216,0.0
54196.0,STARLINK-5237,PAYLOAD,2022-12-24 18:52:46,15.73218489,0.000184,53.2131,218.122,2.5752,357.5277,-4.8875e-06,-1.307e-05,0.0,0 STARLINK-5237,1 54196U 22141AR  22358.78665431 -.00001307  00000-0 -48875-5 0  9995,2 54196  53.2131 218.1220 0001840   2.5752 357.5277 15.73218489  9353,6727.842,91.532,350.945,348.47,0.0
54196.0,STARLINK-5237,PAYLOAD,2022-12-24 20:24:15,15.73220366,0.0001903,53.212,217.8073,6.7798,353.3247,-4.0387e-05,-6.29e-05,0.0,0 STARLINK-5237,1 54196U 22141AR  22358.85018127 -.00006290  00000-0 -40387-4 0  9992,2 54196  53.2120 217.8073 0001903   6.7798 353.3247 15.73220366  9133,6727.837,91.532,350.982,348.422,0.0
54196.0,STARLINK-5237,PAYLOAD,2022-12-25 00:58:42,15.73213797,0.0001546,53.2122,216.8638,9.2438,350.861,-2.2866e-05,-3.83e-05,0.0,0 STARLINK-5237,1 54196U 22141AR  22359.04076396 -.00003830  00000-0 -22866-4 0  9995,2 54196  53.2122 216.8638 0001546   9.2438 350.8610 15.73213797  9162,6727.856,91.532,350.761,348.681,0.0
54196.0,STARLINK-5237,PAYLOAD,2022-12-25 20:47:57,15.73202721,0.0001796,53.212,212.7764,24.6697,335.4409,4.212e-05,5.295e-05,0.0,0 STARLINK-5237,1 54196U 22141AR  22359.86663381  .00005295  00000-0  42120-4 0  9991,2 54196  53.2120 212.7764 0001796  24.6697 335.4409 15.73202721  9294,6727.887,91.533,350.961,348.5440000000001,0.0
54196.0,STARLINK-5237,PAYLOAD,2022-12-25 23:50:54,15.73201852,0.0002233,53.2125,212.1493,5.3703,354.7341,1.5369e-05,1.536e-05,0.0,0 STARLINK-5237,1 54196U 22141AR  22359.99368998  .00001536  00000-0  15369-4 0  9990,2 54196  53.2125 212.1493 0002233   5.3703 354.7341 15.73201852  9544,6727.89,91.533,351.25699999999995,348.25300000000016,0.0
54196.0,STARLINK-5237,PAYLOAD,2022-12-26 13:34:21,15.73017412,0.0001774999999999,53.2128,209.3209,266.5174,93.5643,-0.00035666,-0.00049992,0.0,0 STARLINK-5237,1 54196U 22141AR  22360.56552891 -.00049992  00000-0 -35666-3 0  9993,2 54196  53.2128 209.3209 0001775 266.5174  93.5643 15.73017412  9408,6728.416,91.544,351.475,349.086,0.0
54196.0,STARLINK-5237,PAYLOAD,2022-12-26 19:40:17,15.73004012,0.0007775999999999,53.2132,208.0633,285.4665,74.5496,-0.00032607,-0.0004585,0.0,0 STARLINK-5237,1 54196U 22141AR  22360.81965178 -.00045850  00000-0 -32607-3 0  9998,2 54196  53.2132 208.0633 0007776 285.4665  74.5496 15.73004012  9443,6728.454000000002,91.545,355.551,345.087,0.0
54196.0,STARLINK-5237,PAYLOAD,2022-12-26 21:12:03,15.7215547,0.0007339,53.2124,207.7483,320.4573,39.5911,-0.0032924,-0.00422072,0.0,0 STARLINK-5237,1 54196U 22141AR  22360.88336923 -.00422072  00000-0 -32924-2 0  9991,2 54196  53.2124 207.7483 0007339 320.4573  39.5911 15.72155470  9689,6730.875,91.594,357.68,347.8,0.0
54196.0,STARLINK-5237,PAYLOAD,2022-12-27 14:00:01,15.69555759,0.0004594,53.2167,204.2923,269.191,89.2355,-0.01034,-0.01113316,0.0,0 STARLINK-5237,1 54196U 22141AR  22361.58334491 -.01113316  00000-0 -10340-1 0  9993,2 54196  53.2167 204.2923 0004594 269.1910  89.2355 15.69555759  9797,6738.305,91.746,363.266,357.075,0.0
54196.0,STARLINK-5237,PAYLOAD,2022-12-27 20:00:01,15.6901388,0.0001747,53.2167,203.0642,254.6223,76.8998,-0.011512,-0.01219902,0.0,0 STARLINK-5237,1 54196U 22141AR  22361.83334491 -.01219902  00000-0 -11512-1 0  9991,2 54196  53.2167 203.0642 0001747 254.6223  76.8998 15.69013880  1303,6739.857,91.777,362.899,360.544,0.0
54196.0,STARLINK-5237,PAYLOAD,2022-12-28 06:00:00,15.67950406,9.92e-05,53.2169,201.0155,72.6937,92.855,-0.011455,-0.01166802,0.0,0 STARLINK-5237,1 54196U 22141AR  22362.25001157 -.01166802  00000-0 -11455-1 0  9994,2 54196  53.2169 201.0155 0000992  72.6937  92.8550 15.67950406  9899,6742.904,91.84,365.43800000000016,364.1,0.0
54196.0,STARLINK-5237,PAYLOAD,2022-12-28 14:00:01,15.67131121,0.0001132,53.2169,199.3791,77.2912,170.3566,-0.011725,-0.01155979,0.0,0 STARLINK-5237,1 54196U 22141AR  22362.58334491 -.01155979  00000-0 -11725-1 0  9993,2 54196  53.2169 199.3791 0001132  77.2912 170.3566 15.67131121  1307,6745.254,91.888,367.882,366.355,0.0
54196.0,STARLINK-5237,PAYLOAD,2022-12-28 22:00:00,15.66308453,0.0001019,53.217,197.7475,99.4248,229.3463,-0.011994,-0.01144629,0.0,0 STARLINK-5237,1 54196U 22141AR  22362.91667824 -.01144629  00000-0 -11994-1 0  9997,2 54196  53.2170 197.7475 0001019  99.4248 229.3463 15.66308453  1306,6747.615,91.936,370.168,368.793,0.0
54196.0,STARLINK-5237,PAYLOAD,2022-12-29 06:00:02,15.65489316,0.0001078,53.2171,196.1137,68.095,340.8877,-0.0123069999999999,-0.01137004,0.0,0 STARLINK-5237,1 54196U 22141AR  22363.25002315 -.01137004  00000-0 -12307-1 0  9991,2 54196  53.2171 196.1137 0001078  68.0950 340.8877 15.65489316 10059,6749.969,91.984,372.562,371.106,0.0
